SAR-LUPE 2              
1 31797U 07030A   26177.76726881  .00020775  00000+0  35183-3 0  9998
2 31797  98.1045 283.3969 0002472 182.4782 177.6457 15.51588488 58422
SAPPHIRE                
1 39088U 13009C   26177.71280078  .00000097  00000+0  48715-4 0  9991
2 39088  98.4264 356.9424 0010453 215.5964 144.4526 14.35242984697944
PRAETORIAN SDA_602      
1 65565U 25203A   26176.91435568  .00000104  00000+0  82306-4 0  9999
2 65565  81.3029   2.6841 0006264 162.2891 197.8485 13.84278827 39903
PRAETORIAN SDA_603      
1 65566U 25203B   26177.44950022  .00000188  00000+0  15865-3 0  9993
2 65566  81.3035   2.1106 0009844 162.4511 197.6988 13.83906517 39985
PRAETORIAN SDA_604      
1 65567U 25203C   26177.76432744  .00000084  00000+0  65853-4 0  9993
2 65567  81.3052   2.2462 0005802 165.5081 194.6242 13.83048465 40001
PRAETORIAN SDA_605      
1 65568U 25203D   26177.43769497  .00000058  00000+0  41601-4 0  9992
2 65568  81.3018   2.2022 0008596 158.4111 201.7409 13.83434916 39973
PRAETORIAN SDA_606      
1 65569U 25203E   26177.49418061  .00000049  00000+0  33770-4 0  9995
2 65569  81.3051   2.3786 0006467 160.8277 199.3123 13.83198588 39971
PRAETORIAN SDA_607      
1 65570U 25203F   26177.49488781  .00000178  00000+0  14908-3 0  9997
2 65570  81.3035   2.0241 0009287 162.4881 197.6598 13.84285184 39999
PRAETORIAN SDA_608      
1 65571U 25203G   26177.76464024  .00000043  00000+0  27800-4 0  9999
2 65571  81.3005   1.9395 0006313 164.8336 195.3010 13.83817317 40010
PRAETORIAN SDA_609      
1 65572U 25203H   26177.76683516  .00000153  00000+0  12675-3 0  9994
2 65572  81.3046   1.9188 0007233 160.0894 200.0546 13.84209260 40027
PRAETORIAN SDA_610      
1 65573U 25203J   26177.74471387  .00000078  00000+0  59385-4 0  9990
2 65573  81.3007   1.9168 0007075 164.4147 195.7228 13.83768401 40018
PRAETORIAN SDA_611      
1 65574U 25203K   26177.74868117  .00000103  00000+0  83268-4 0  9998
2 65574  81.3008   2.0857 0005861 168.5460 191.5831 13.83309789 40004
PRAETORIAN SDA_612      
1 65575U 25203L   26177.22068667  .00000182  00000+0  15075-3 0  9991
2 65575  81.3029   2.1381 0009593 162.6169 197.5318 13.85040860 39961
PRAETORIAN SDA_613      
1 65576U 25203M   26177.75918556  .00000071  00000+0  53913-4 0  9992
2 65576  81.2999   2.0803 0006090 158.4674 201.6739 13.82765921 40008
PRAETORIAN SDA_614      
1 65577U 25203N   26177.50058108  .00000062  00000+0  44649-4 0  9990
2 65577  81.3013   1.9586 0007536 158.7730 201.3741 13.84777993 40009
PRAETORIAN SDA_615      
1 65578U 25203P   26177.76884706  .00000149  00000+0  12247-3 0  9994
2 65578  81.3019   1.6796 0009477 159.1650 200.9894 13.84437574 40033
PRAETORIAN SDA_616      
1 65579U 25203Q   26177.74818095  .00000203  00000+0  17396-3 0  9992
2 65579  81.3061   2.2378 0005780 166.0786 194.0530 13.83268927 40004
PRAETORIAN SDA_617      
1 65580U 25203R   26177.77060060  .00000049  00000+0  33512-4 0  9995
2 65580  81.3035   2.0471 0007809 158.5551 201.5934 13.83150467 40011
PRAETORIAN SDA_618      
1 65581U 25203S   26177.44424983  .00000028  00000+0  14181-4 0  9996
2 65581  81.3021   1.9070 0010122 162.7241 197.4262 13.84669977 39999
PRAETORIAN SDA_619      
1 65582U 25203T   26177.48597005  .00000257  00000+0  22090-3 0  9998
2 65582  81.3045   2.1798 0008591 160.4101 199.7387 13.83806569 40616
PRAETORIAN SDA_620      
1 65583U 25203U   26177.44290497  .00000149  00000+0  12454-3 0  9993
2 65583  81.3030   2.2421 0008060 156.5713 203.5812 13.83619018 39976
PRAETORIAN SDA_621      
1 65584U 25203V   26177.48777164  .00000078  00000+0  59588-4 0  9990
2 65584  81.3021   2.1147 0007860 154.1412 206.0139 13.83802141 39980
PRAETORIAN SDA_601      
1 65585U 25203W   26177.46265927  .00000342  00000+0  30119-3 0  9990
2 65585  81.3037   2.4454 0005763 169.9917 190.1355 13.83168621 39965
VICTUS HAZE PUMA        
1 69646U 26142A   26177.62486987  .00003976  00000+0  18296-3 0  9992
2 69646  97.4481  75.1414 0021088 293.7661  66.1362 15.20717288  1108
